STARLINK-1434           
1 45712U 20035BH  26068.24137979  .00054112  00000+0  20295-2 0  9995
2 45712  53.0547  22.1128 0005343  88.0400 272.1210 15.26724568319325
STARLINK-31494          
1 59238U 24049H   26068.26348078 -.00002260  00000+0 -72634-4 0  9993
2 59238  43.0015 145.7093 0001179 241.1794 118.8939 15.27577403112348
